
 PEER Ground Motion Database, Time Series Search Report -- NGA-West2 -- 2019-09-18


 -- Summary of PEER Ground Motion Database Search Criteria --
Magnitude Min:, -1.0e-06
Magnitude Max:, 99999
Rrup Min (km):, -1.0e-06
Rrup Max (km):, 99999
Rjb Min (km):, -1.0e-06
Rjb Max (km):, 99999
Vs30 Min (m/sec):, -1.0e-06
Vs30 Max (m/sec):, 99999
D9-95 Min (sec):, -1.0e-06
D9-95 Max (sec):, 99999
Scale Factor Min:, -1.0e-06
Scale Factor Max:, 99999
Period Array:, 
Weight Array:, 
Record Sequence Number:, 126,160,165,495,496,741,753,825,1004,1048,1176,1504,1517,2114
Earthquake Name:, 
Station Name:, 
User-Defined Maximum Number of Records:, 
Pulse:, 1
Damping Ratio:, 0.05
Scaling Method:, No Scaling
Suite Average:, Arithmetic
Single-Period-Scaling Period (sec):, 
Component:, SRSS
Fault Type:, All Types


 -- Summary of Metadata of Selected Records --
Result ID, Spectral Ordinate, Record Sequence Number, Mean Squared Error, Scale Factor, Tp-Pulse Period (sec), 5-75% Duration (sec), 5-95% Duration (sec), Arias Intensity (m/sec), Earthquake Name, Year, Station Name, Magnitude, Mechanism, Rjb (km), Rrup (km), Vs30 (m/sec), Lowest Useable Frequency (Hz), Initial-search Scale Factor, Horizontal-1 Acc. Filename, Horizontal-2 Acc. Filename, Vertical Acc. Filename
1, SRSS, 126, -, 1.0, -, 5.6, 7.0, 5.7, "Gazli_ USSR", 1976, "Karakyr", 6.8, Reverse, 3.92, 5.46, 259.59, 0.25, 1.0, RSN126_GAZLI_GAZ000.AT2, RSN126_GAZLI_GAZ090.AT2 , RSN126_GAZLI_GAZ-UP.AT2  
2, SRSS, 160, -, 1.0, -, 6.1, 9.7, 6.1, "Imperial Valley-06", 1979, "Bonds Corner", 6.53, strike slip, 0.44, 2.66, 223.03, 0.125, 1.0, RSN160_IMPVALL.H_H-BCR140.AT2, RSN160_IMPVALL.H_H-BCR230.AT2 , RSN160_IMPVALL.H_H-BCR-UP.AT2  
3, SRSS, 165, -, 1.0, -, 13.2, 24.0, 1.2, "Imperial Valley-06", 1979, "Chihuahua", 6.53, strike slip, 7.29, 7.29, 242.05, 0.225, 1.0, RSN165_IMPVALL.H_H-CHI012.AT2, RSN165_IMPVALL.H_H-CHI282.AT2 , RSN165_IMPVALL.H_H-CHIDWN.AT2  
4, SRSS, 495, -, 1.0, -, 7.2, 7.5, 3.9, "Nahanni_ Canada", 1985, "Site 1", 6.76, Reverse, 2.48, 9.6, 605.04, 0.125, 1.0, RSN495_NAHANNI_S1010.AT2, RSN495_NAHANNI_S1280.AT2 , RSN495_NAHANNI_S1-UP.AT2  
5, SRSS, 496, -, 1.0, -, 4.5, 7.3, 0.9, "Nahanni_ Canada", 1985, "Site 2", 6.76, Reverse, 0.0, 4.93, 605.04, 0.125, 1.0, RSN496_NAHANNI_S2240.AT2, RSN496_NAHANNI_S2330.AT2 ,  -----   
6, SRSS, 741, -, 1.0, -, 6.9, 9.8, 5.4, "Loma Prieta", 1989, "BRAN", 6.93, Reverse Oblique, 3.85, 10.72, 476.54, 0.125, 1.0, RSN741_LOMAP_BRN000.AT2, RSN741_LOMAP_BRN090.AT2 , RSN741_LOMAP_BRN-UP.AT2  
7, SRSS, 753, -, 1.0, -, 4.6, 7.9, 3.2, "Loma Prieta", 1989, "Corralitos", 6.93, Reverse Oblique, 0.16, 3.85, 462.24, 0.1875, 1.0, RSN753_LOMAP_CLS000.AT2, RSN753_LOMAP_CLS090.AT2 , RSN753_LOMAP_CLS-UP.AT2  
8, SRSS, 825, -, 1.0, -, 2.9, 9.7, 6.0, "Cape Mendocino", 1992, "Cape Mendocino", 7.01, Reverse, 0.0, 6.96, 567.78, 0.07, 1.0, RSN825_CAPEMEND_CPM000.AT2, RSN825_CAPEMEND_CPM090.AT2 , RSN825_CAPEMEND_CPM-UP.AT2  
9, SRSS, 1004, -, 1.0, 0.931, 4.7, 8.5, 7.0, "Northridge-01", 1994, "LA - Sepulveda VA Hospital", 6.69, Reverse, 0.0, 8.44, 380.06, 0.182, 1.0, RSN1004_NORTHR_SPV270.AT2, RSN1004_NORTHR_SPV360.AT2 , RSN1004_NORTHR_SPV-UP.AT2  
10, SRSS, 1048, -, 1.0, -, 6.6, 15.7, 4.6, "Northridge-01", 1994, "Northridge - 17645 Saticoy St", 6.69, Reverse, 0.0, 12.09, 280.86, 0.1625, 1.0, RSN1048_NORTHR_STC090.AT2, RSN1048_NORTHR_STC180.AT2 ,  -----   
11, SRSS, 1176, -, 1.0, 4.949, 7.0, 15.1, 1.3, "Kocaeli_ Turkey", 1999, "Yarimca", 7.51, strike slip, 1.38, 4.83, 297.0, 0.0875, 1.0, RSN1176_KOCAELI_YPT060.AT2, RSN1176_KOCAELI_YPT150.AT2 , RSN1176_KOCAELI_YPT-UP.AT2  
12, SRSS, 1504, -, 1.0, -, 11.0, 23.0, 3.6, "Chi-Chi_ Taiwan", 1999, "TCU067", 7.62, Reverse Oblique, 0.62, 0.62, 433.63, 0.0375, 1.0, RSN1504_CHICHI_TCU067-E.AT2, RSN1504_CHICHI_TCU067-N.AT2 , RSN1504_CHICHI_TCU067-V.AT2  
13, SRSS, 1517, -, 1.0, -, 17.5, 23.0, 20.3, "Chi-Chi_ Taiwan", 1999, "TCU084", 7.62, Reverse Oblique, 0.0, 11.48, 665.2, 0.25, 1.0, RSN1517_CHICHI_TCU084-E.AT2, RSN1517_CHICHI_TCU084-N.AT2 , RSN1517_CHICHI_TCU084-V.AT2  
14, SRSS, 2114, -, 1.0, 3.157, 9.1, 29.5, 1.9, "Denali_ Alaska", 2002, "TAPS Pump Station #10", 7.9, strike slip, 0.18, 2.74, 329.4, 0.13, 1.0, RSN2114_DENALI_PS10-047.AT2, RSN2114_DENALI_PS10-317.AT2 , RSN2114_DENALI_PS10-UP.AT2  

 These records were obtained from the NGA-West2 On-Line Ground-Motion Database Tool
 These records are UNSCALED, AS RECORDED
 Filename Extension: 
   ,AT2 = Acceleration
   ,VT2 = Velocity
   ,DT2 = Displacement
 The users of the NGA-West2 databases, flatfiles, models and reports are requested to acknowledge the Pacific Earthquake Engineering Research Center (PEER) in their work and publications.

 -- Scaled Spectra used in Search & Scaling --
Period (sec),Arithmetic Mean pSa (g),Arithmetic Mean + Sigma pSa (g),Arithmetic Mean - Sigma pSa (g),RSN-126 SRSS pSa (g),RSN-160 SRSS pSa (g),RSN-165 SRSS pSa (g),RSN-495 SRSS pSa (g),RSN-496 SRSS pSa (g),RSN-741 SRSS pSa (g),RSN-753 SRSS pSa (g),RSN-825 SRSS pSa (g),RSN-1004 SRSS pSa (g),RSN-1048 SRSS pSa (g),RSN-1176 SRSS pSa (g),RSN-1504 SRSS pSa (g),RSN-1517 SRSS pSa (g),RSN-2114 SRSS pSa (g)
0.01,0.90038552,1.48646052,0.54538555,1.22063907,0.98515469,0.37354042,1.71760055,0.65763715,0.68731642,0.80654449,1.84659525,1.20007399,0.57966413,0.3939611,0.59265426,1.09769588,0.44631985
0.02,0.97049616,1.59384332,0.59093813,1.47937326,1.0796385,0.37208933,1.87563803,0.9170221,0.86153629,0.81120378,1.85695061,1.21094224,0.58159248,0.39494477,0.59667484,1.1020368,0.44730316
0.022,0.99225465,1.65909547,0.59343739,1.44454066,1.14071449,0.37136404,1.96961071,0.88249048,0.93096061,0.81959678,1.98631658,1.22199048,0.58143458,0.39888929,0.59398492,1.10228644,0.44738499
0.025,1.06135037,1.8450243,0.61054188,1.72167409,1.25765743,0.3774311,2.15548456,1.06758716,0.85636202,0.81891654,2.20287119,1.25004989,0.58759539,0.40369064,0.60596812,1.1059639,0.44765309
0.029,1.12459506,1.99981682,0.63241495,2.04734084,1.38124629,0.38745624,2.21256445,1.2771221,0.80775988,0.83463094,2.34615161,1.26456471,0.60286337,0.4044809,0.62003394,1.10988206,0.44823357
0.03,1.12175059,1.97971351,0.63560933,2.04343542,1.40261754,0.39139003,2.12667561,1.29082569,0.79983516,0.83546117,2.34187483,1.28058852,0.60515813,0.40347299,0.62342986,1.11159158,0.44815169
0.032,1.12728325,1.97988802,0.64183808,2.03543545,1.44332361,0.39285669,2.1200082,1.2915511,0.83102069,0.82339941,2.33687797,1.29843526,0.61609643,0.40623448,0.62527297,1.11333542,0.44811784
0.035,1.13331023,1.98733532,0.64628856,2.10748394,1.45189395,0.37690022,2.0828228,1.27494003,0.92226551,0.83697679,2.3394164,1.26319732,0.61239458,0.40604527,0.62886054,1.11468143,0.44846446
0.036,1.14202495,2.00782283,0.64956976,2.09707687,1.45550525,0.3838216,2.15038309,1.31333061,0.91599124,0.84786377,2.34678819,1.27330613,0.60512819,0.40431221,0.62886338,1.11609476,0.44988406
0.04,1.17032886,2.08445677,0.6570871,1.85886459,1.43329716,0.39692797,2.59425502,1.38121154,0.93399025,0.84684909,2.29006379,1.41897545,0.57956709,0.4144486,0.65409268,1.1263285,0.45573234
0.042,1.21285048,2.18486011,0.67327253,2.23841725,1.35247847,0.40242638,2.55937294,1.56804911,0.95344613,0.83221021,2.35510186,1.44901953,0.60781882,0.40959766,0.65933408,1.13513034,0.45750396
0.044,1.25151668,2.30069591,0.68079141,2.49349727,1.31130856,0.39954648,2.55695918,1.62081188,0.99998413,0.82834516,2.52306982,1.49880565,0.62191729,0.40978712,0.6575719,1.13913234,0.46049678
0.045,1.27241855,2.35894822,0.68634358,2.50282651,1.30674998,0.39189119,2.6518356,1.69755043,1.02863089,0.83804563,2.58602566,1.52427026,0.61465006,0.41060828,0.65823047,1.14012696,0.4624178
0.046,1.291369,2.41112584,0.69164116,2.48731096,1.30850296,0.38823993,2.76078951,1.74978072,1.0406429,0.85307502,2.64902214,1.54158224,0.62369298,0.41081199,0.66041551,1.14087537,0.46442372
0.048,1.30975553,2.45365365,0.69914495,2.43867829,1.34612431,0.39136609,2.83602788,1.75015027,1.05013358,0.88020142,2.76225373,1.5466918,0.63967303,0.40986641,0.66977188,1.14768948,0.4679493
0.05,1.3180417,2.48465569,0.69918497,2.56977089,1.38243981,0.39828055,2.78004492,1.71835857,0.98711789,0.90058145,2.83643574,1.51601705,0.65751933,0.40737362,0.66742075,1.16112382,0.47009938
0.055,1.2744303,2.33319993,0.69611377,2.51329283,1.41286017,0.42134542,2.16757055,1.46504352,1.03721734,0.90914726,2.97274233,1.50175378,0.70361921,0.41741641,0.66118928,1.17719284,0.48163331
0.06,1.34905369,2.59801924,0.70051285,2.57484267,1.43343778,0.42043531,2.97577397,1.35042045,1.11011216,0.92532402,3.12053584,1.51170227,0.7227523,0.41754296,0.64767831,1.19112599,0.48506759
0.065,1.44738734,2.97916908,0.70319275,2.76387233,1.38318996,0.44394143,3.86664287,1.3197792,1.18731196,0.95903788,3.25095453,1.51734014,0.78735104,0.41809006,0.65581714,1.231426,0.47866823
0.067,1.47062341,3.08190221,0.7017527,2.83357048,1.39861886,0.45004097,4.06646322,1.19259973,1.24069278,0.96842956,3.27448671,1.58464031,0.79032553,0.41800653,0.65293291,1.24260956,0.47531052
0.07,1.48875785,3.06947746,0.72207728,3.04525617,1.47390579,0.48611685,3.94183708,1.10668669,1.34394192,0.98089411,3.20981157,1.64983516,0.79986424,0.42600376,0.64806193,1.25143207,0.47896253
0.075,1.47764686,2.97844037,0.73308174,3.0629562,1.51366708,0.52422633,3.6993335,0.94389413,1.35397061,1.01489399,3.18416223,1.701207,0.83227723,0.42821046,0.68417591,1.26075515,0.48332623
0.08,1.44170233,2.86676629,0.7250349,2.55839089,1.49877108,0.54653168,3.58993305,0.94143383,1.16606103,1.00594814,3.348631,1.75932753,0.84891029,0.4387615,0.72001503,1.28087547,0.48024209
0.085,1.4497027,2.82885059,0.74292998,2.37984358,1.56849761,0.54180607,3.45338512,0.99222057,1.28651904,0.9938376,3.46975605,1.77293625,0.89490261,0.4626975,0.71408286,1.29259922,0.47275371
0.09,1.48366895,2.84629539,0.77338198,2.27375609,1.65521019,0.54295641,3.50467736,0.94734861,1.57029697,0.99356689,3.48769326,1.78282718,0.997603,0.47612391,0.73726478,1.30672324,0.49531745
0.095,1.5044906,2.90532604,0.77908363,2.15328702,1.68859196,0.54819349,3.75900074,0.93172406,1.48359659,1.01180291,3.42990426,1.8982769,1.12342935,0.47075156,0.75263436,1.31959805,0.49207715
0.1,1.51782038,2.90105482,0.7941176,2.34056647,1.63112893,0.56768127,3.75776129,0.87673716,1.43899733,1.07124292,3.35095895,1.90413406,1.17165921,0.46954734,0.79278496,1.37527813,0.50100728
0.11,1.4965285,2.77514233,0.80702079,2.35179904,1.98542162,0.61189797,3.38884119,0.78818989,1.49989966,1.0267409,3.2347785,1.87272162,1.0817411,0.49340122,0.80596105,1.34277542,0.46722977
0.12,1.52824593,2.74299602,0.85145425,2.11847014,2.3991683,0.56814105,2.78148116,0.74256298,1.80616262,1.07039621,3.48597988,1.99858789,1.09187114,0.52685417,0.76361521,1.43189365,0.6102586
0.13,1.60988094,2.91176334,0.89008492,2.19322213,2.26301581,0.65464348,3.0153221,0.75443745,2.05767158,1.27574072,3.71939259,2.17279368,1.08194195,0.50902195,0.74960609,1.49817668,0.59334689
0.133,1.62528393,2.93430979,0.900228,2.31088769,2.22917912,0.67505061,2.96298482,0.75387818,2.20914434,1.28608152,3.74574041,2.14645215,1.07678047,0.50139556,0.75764658,1.50616503,0.59258849
0.14,1.61145192,2.84325167,0.9133125,2.22626129,2.15486131,0.66800072,2.64477981,0.73377335,2.31189373,1.24206892,3.70029562,2.15401794,1.12991664,0.49621393,0.81918287,1.63263526,0.64642549
0.15,1.57141515,2.7697038,0.89155583,2.02834076,2.21785664,0.56854399,2.77069892,0.66620236,2.05493214,1.28444329,3.60291841,1.89271005,1.29956575,0.53800482,0.7810205,1.66789613,0.62667832
0.16,1.60015972,2.78433227,0.91961407,2.26304654,2.48543896,0.57808941,2.90075955,0.56667146,1.89282124,1.39834534,3.31687779,2.06773937,1.35562942,0.56516636,0.84106652,1.55503493,0.61554924
0.17,1.71388159,3.06609583,0.95802292,2.14024564,2.74788721,0.59220907,3.67034511,0.5109123,1.84930456,1.4954937,3.04651358,2.71521616,1.36023602,0.62540407,0.83747444,1.78506449,0.61803588
0.18,1.7306355,3.10882927,0.96341709,1.90551803,2.75394106,0.65742888,4.00752382,0.58492041,1.66935363,1.45901795,2.9974191,2.53838596,1.50503054,0.65072385,0.87082087,2.02965107,0.59916186
0.19,1.7237251,2.97989387,0.99709196,1.96077073,2.58954259,0.72793289,3.87492639,0.6622439,1.51142875,1.48377874,2.83950005,2.54642149,1.59119553,0.66344988,1.01739957,2.01745899,0.64610189
0.2,1.68386076,2.89546216,0.97925198,1.86447617,2.62539633,0.69683271,3.64416365,0.67817455,1.30111011,1.45135933,2.84918897,2.68006777,1.50681693,0.67242916,1.0973083,1.79922713,0.7074995
0.22,1.64565086,2.74950565,0.98496497,1.56214397,2.38078468,0.73387589,2.82596075,0.64067469,1.42022475,1.6654139,3.15687328,2.884043,1.43269109,0.65475355,1.07634736,1.91581132,0.68951379
0.24,1.64163105,2.63150878,1.02410926,1.43789041,2.41214663,0.90862904,1.94283035,0.6801671,1.62255837,1.98503659,3.33448855,2.63386986,1.38399017,0.7799394,1.0578959,2.10160937,0.70178299
0.25,1.6541767,2.62513758,1.04234558,1.48372813,2.31349667,0.9415668,1.9065696,0.74761881,1.70672096,2.09568582,3.47769003,2.45647503,1.36339846,0.81013381,1.06359567,2.05460066,0.73719336
0.26,1.68173092,2.62406933,1.07779884,1.59885976,2.0900114,0.96034898,1.92193965,0.80342473,1.90742843,2.20297946,3.49078329,2.50228461,1.31257221,0.8554988,1.14293802,1.99054316,0.76462037
0.28,1.73369895,2.73220723,1.10010398,1.79324213,2.04829515,0.90861658,1.98837747,0.8339721,1.84960035,2.32107265,3.35533466,3.07117083,1.33917337,0.86508197,1.19822555,1.97419963,0.72542289
0.29,1.73397008,2.71706732,1.10657996,1.72948547,2.29830502,0.81660246,1.88618426,0.81362933,1.8289238,2.37219955,3.12257429,3.09954661,1.50480344,0.88262996,1.25260917,2.01329913,0.65478865
0.3,1.73645136,2.71999566,1.10855447,1.72885425,2.47573226,0.71211751,1.85302284,0.77937812,1.78829734,2.37908271,2.96331551,3.08920274,1.62632639,0.86486126,1.27262344,2.09489978,0.68260493
0.32,1.72442922,2.6311294,1.1301824,1.78877651,2.52431313,0.65430211,2.02712934,0.71650234,1.80031303,2.26882965,2.72138201,2.85598198,1.92634743,0.85005234,1.28229729,1.95310014,0.77268183
0.34,1.66032056,2.46970031,1.11619387,1.73361293,2.58261294,0.57666327,1.92400191,0.69399904,1.97383955,1.9806787,2.43401874,2.44196935,1.88741761,0.82666073,1.5631581,1.88029161,0.7455633
0.35,1.63221825,2.40766787,1.10652157,1.77405579,2.67276425,0.6316816,1.71363317,0.67271916,2.1603925,1.83363805,2.26994283,2.30263406,1.78108575,0.84269877,1.65498151,1.78084868,0.75997941
0.36,1.62597441,2.3862505,1.1079276,1.85379547,2.75312342,0.69611615,1.56163926,0.66452751,2.26096664,1.80069628,2.16224228,2.14715862,1.75892733,0.86468121,1.68261555,1.77686759,0.78028441
0.38,1.60852378,2.38888296,1.08307891,1.80474361,2.86232372,0.72213658,1.28061983,0.63889009,2.20700042,1.79685116,1.94962001,2.16973312,1.75350166,0.82752468,1.6086963,2.04693672,0.85075507
0.4,1.6550861,2.45543271,1.11561192,1.8667467,2.84844888,0.78190789,1.25990338,0.64094622,2.37915507,1.84704674,1.72125576,2.27616988,1.82487603,0.84458754,1.64794695,2.29097035,0.94124403
0.42,1.64085993,2.44081223,1.10308416,1.68565372,2.78230132,0.83221215,1.21447785,0.69008694,2.38607325,1.84591805,1.55611675,2.34227945,1.93123735,0.92398825,1.4287019,2.43718258,0.91580949
0.44,1.59428767,2.39966459,1.05921186,1.45262451,2.46845191,0.83857563,1.09370491,0.74244033,2.26773999,1.78553633,1.57827301,2.6357243,1.7874617,0.91869935,1.33529147,2.56118064,0.85432336
0.45,1.5917897,2.38032408,1.06447457,1.4265381,2.31082581,0.84697025,1.07761711,0.78999842,2.25620942,1.75741571,1.6571886,2.58644024,1.76944054,0.90491843,1.40105624,2.66799625,0.83244069
0.46,1.57574298,2.32883126,1.06618542,1.4016715,2.17055304,0.83550851,1.08016773,0.85752644,2.20502779,1.73955733,1.72905824,2.48624568,1.74760495,0.87210731,1.43537239,2.68023648,0.81976438
0.48,1.50603942,2.17941395,1.04071772,1.34109888,2.02014358,0.78613959,1.08870706,0.96879349,2.08643596,1.74033031,1.75384834,2.29914634,1.65897674,0.77407439,1.34727736,2.43938928,0.78019049
0.5,1.46745938,2.0392941,1.05597178,1.66457886,1.88797341,0.76583105,1.02829534,1.02950524,2.07771226,1.77462589,1.65747266,2.10644236,1.54711512,0.81075108,1.39473671,2.03561503,0.76377628
0.55,1.47684124,2.13164479,1.02318175,1.88815885,2.28144576,0.80919834,0.82513824,0.97903642,1.99408516,1.85560757,1.30009582,2.16142916,1.46911457,0.90760054,1.24789638,2.14563664,0.81133387
0.6,1.40306575,1.94966767,1.00970721,1.4938793,2.2639501,1.0217788,0.88607363,0.87365955,1.72429256,1.75237237,1.25814881,2.03906976,1.31914835,0.93146617,1.15278944,2.00666774,0.91962394
0.65,1.33997785,1.82921111,0.9815929,1.37756354,1.88443899,1.10026369,0.82232517,0.76096679,1.76835121,1.602531,1.25402892,1.9824716,1.36259705,0.88466318,1.00462527,1.94951671,1.00534673
0.667,1.31626481,1.79275927,0.96641701,1.38594067,1.55929809,1.12469325,0.85580933,0.72865077,1.77454948,1.58088006,1.2405215,1.99803723,1.18282027,0.87962038,1.02540344,2.04993404,1.04154882
0.7,1.31219153,1.82724986,0.9423159,1.29446475,1.50922844,1.077596,0.85120819,0.66540254,1.57968683,1.71919406,1.18146937,2.11553812,1.12045586,0.88735782,1.13170912,2.15743399,1.07993627
0.75,1.31525064,1.94248876,0.89055045,1.20832161,1.38109946,0.94249456,0.85476896,0.57313246,1.27603014,1.70986143,1.09593695,2.20478736,1.2678572,0.922198,1.3360314,2.56234822,1.07864123
0.8,1.27201514,2.042876,0.79203168,1.17649907,1.34012708,0.80983919,0.88893277,0.49658388,1.30963532,1.45615752,1.02278108,2.10960514,0.99614804,0.91322253,1.20960635,3.02006647,1.05900746
0.85,1.22580375,2.16946111,0.69261202,1.03112409,1.33524157,0.74524427,0.84059601,0.4351546,1.29508007,1.27873392,0.97022188,1.96569802,0.8925302,0.78203635,1.13148723,3.42305156,1.03505277
0.9,1.13994165,2.22788203,0.58327458,0.96532456,1.07146575,0.58066311,0.76991958,0.3867223,1.07678776,1.03561882,0.92443505,1.71289983,0.90557709,0.65805216,1.11826975,3.67667441,1.0767729
0.95,1.02523848,2.02860932,0.51814508,0.93810546,0.80011513,0.5345959,0.70748773,0.34708075,0.83480732,0.83729645,0.87508826,1.50585611,0.92784343,0.55027002,1.0416585,3.35492709,1.09820655
1.0,0.91488718,1.68594773,0.49646767,0.90346038,0.62047665,0.51973721,0.63767791,0.31223846,0.73147002,0.67616777,0.81628249,1.2966573,0.87352792,0.52481291,1.07306628,2.71285255,1.10999266
1.1,0.82956184,1.55192174,0.4434327,0.94448475,0.68585722,0.42743092,0.4267315,0.26479983,0.59315283,0.56172284,0.69802264,1.06689902,0.74931985,0.55374004,1.07871619,2.46878649,1.09420164
1.2,0.75687605,1.4229367,0.4025909,0.67214764,0.582505,0.35030672,0.45664847,0.20604269,0.59695031,0.49662294,0.62518914,0.94184761,0.87254613,0.60950108,0.92246695,2.28805435,0.97543572
1.3,0.6639554,1.16940559,0.37697509,0.51749273,0.44013878,0.35294672,0.37300204,0.18718669,0.56522376,0.4972257,0.58618316,0.72767075,0.89202421,0.71515636,0.73946662,1.8228344,0.87882367
1.4,0.5981599,1.01607767,0.35213378,0.57692741,0.33579171,0.33300698,0.28422766,0.17677999,0.42854066,0.45991971,0.5461627,0.60992038,0.78013576,0.7160494,0.77762794,1.48769791,0.86145043
1.5,0.55115448,0.98848761,0.30730913,0.66123757,0.3242363,0.27407737,0.26388051,0.17429422,0.31639887,0.39025757,0.50405046,0.52613607,0.56365682,0.58347626,0.80984717,1.46835425,0.85625933
1.6,0.5257923,1.03637695,0.26675385,0.6931226,0.3408405,0.23824972,0.2303462,0.18107198,0.23910886,0.32297926,0.45883033,0.45794797,0.48567179,0.49887214,0.81099447,1.59003869,0.81301767
1.7,0.49136347,1.00554423,0.24010685,0.66385124,0.30534554,0.22155322,0.20772068,0.18183615,0.19368982,0.28621324,0.42012839,0.47960753,0.4326817,0.41454984,0.7477129,1.55527639,0.76892193
1.8,0.45120385,0.93775699,0.21709773,0.5895405,0.28273646,0.19543619,0.18318398,0.17589746,0.17118836,0.25384957,0.38742133,0.44614312,0.41489526,0.36049323,0.67005743,1.4550382,0.73097282
1.9,0.42618721,0.88244918,0.20583116,0.49404486,0.29470671,0.20792396,0.17164841,0.16305321,0.1597195,0.2163311,0.36571201,0.34952156,0.49292713,0.35254454,0.6249438,1.37135301,0.70219118
2.0,0.39570414,0.7976337,0.19630786,0.41579978,0.30052982,0.1675109,0.17080914,0.14759272,0.141916,0.21105561,0.34120328,0.31968101,0.52683192,0.34011281,0.57107892,1.21344742,0.67228868
